PTD-R (TYVAK-0127)      
1 60523U 24149BH  26068.81355855  .00144621  00000+0  12021-2 0  9993
2 60523  97.3759 162.0693 0004267 248.5856 111.4951 15.69700541 87692
STARLINK-11505 [DTC]    
1 62469U 24254H   26068.56845082  .00231076  00000+0  17558-2 0  9990
2 62469  43.0025 223.5788 0006306 295.0096  65.0116 15.70807986 69379
