[{"OBJECT_NAME":"PTD-R (TYVAK-0127)","OBJECT_ID":"2024-149BH","EPOCH":"2026-03-09T19:31:31.459584","MEAN_MOTION":15.69700541,"ECCENTRICITY":0.00042667,"INCLINATION":97.3759,"RA_OF_ASC_NODE":162.0693,"ARG_OF_PERICENTER":248.5856,"MEAN_ANOMALY":111.4951,"EPHEMERIS_TYPE":0,"CLASSIFICATION_TYPE":"U","NORAD_CAT_ID":60523,"ELEMENT_SET_NO":999,"REV_AT_EPOCH":8769,"BSTAR":0.0012020526,"MEAN_MOTION_DOT":0.00144621,"MEAN_MOTION_DDOT":0},{"OBJECT_NAME":"STARLINK-11505 [DTC]","OBJECT_ID":"2024-254H","EPOCH":"2026-03-09T13:38:34.150848","MEAN_MOTION":15.70807986,"ECCENTRICITY":0.0006306,"INCLINATION":43.0025,"RA_OF_ASC_NODE":223.5788,"ARG_OF_PERICENTER":295.0096,"MEAN_ANOMALY":65.0116,"EPHEMERIS_TYPE":0,"CLASSIFICATION_TYPE":"U","NORAD_CAT_ID":62469,"ELEMENT_SET_NO":999,"REV_AT_EPOCH":6937,"BSTAR":0.0017558,"MEAN_MOTION_DOT":0.00231076,"MEAN_MOTION_DDOT":0}]
